1 45204U 20012AC  22365.30567908  .00001918  00000-0  14764-3 0  9990
2 45204  53.0536 213.7485 0001468  76.7104 283.4048 15.06388600159633
1 45204U 20012AC  22365.83645297  .00001916  00000-0  14751-3 0  9990
2 45204  53.0536 211.3656 0001476  77.1983 282.9171 15.06393802159716
1 45204U 20012AC  23001.30088103  .00001153  00000-0  96303-4 0  9994
2 45204  53.0537 209.2807 0001473  76.0960 284.0192 15.06396733158835
1 45204U 20012AC  23001.56627995 -.00000672  00000-0 -26244-4 0  9994
2 45204  53.0537 208.0897 0001854  77.8358 282.2838 15.06387773159825
1 45204U 20012AC  23001.83166362 -.00000020  00000-0  17600-4 0  9992
2 45204  53.0536 206.8982 0001831  80.6337 279.4859 15.06392892159862
1 45204U 20012AC  23002.56147303  .00000651  00000-0  62614-4 0  9991
2 45204  53.0547 203.6208 0001411  77.8838 282.2309 15.06400402159979
1 45204U 20012AC  23002.82685834  .00000898  00000-0  79176-4 0  9990
2 45204  53.0546 202.4297 0001423  76.9937 283.1211 15.06402526160014
1 45204U 20012AC  23002.82685834  .00000898  00000-0  79176-4 0  9990
2 45204  53.0546 202.4297 0001423  76.9937 283.1211 15.06402526159067
1 45204U 20012AC  23003.55668128  .00010905  00000-0  75059-3 0  9993
2 45204  53.0543 199.1540 0001255  84.6746 275.4386 15.06361975160122
1 45204U 20012AC  23003.55668128  .00010905  00000-0  75059-3 0  9993
2 45204  53.0543 199.1540 0001255  84.6746 275.4386 15.06361975159175
1 45204U 20012AC  23003.82206539  .00008579  00000-0  59446-3 0  9993
2 45204  53.0544 197.9624 0001236  78.1733 281.9394 15.06378961159217
1 45204U 20012AC  23003.95474861  .00001799  00000-0  13960-3 0  9990
2 45204  53.0543 197.3668 0001368  74.4785 285.6355 15.06407149159231
1 45204U 20012AC  23004.48552736  .00000105  00000-0  25973-4 0  9995
2 45204  53.0544 194.9844 0001482  78.0568 282.0587 15.06403043160269
1 45204U 20012AC  23004.48552736  .00000105  00000-0  25973-4 0  9995
2 45204  53.0544 194.9844 0001482  78.0568 282.0587 15.06403043159313
1 45204U 20012AC  23004.81726261 -.00000307  00000-0 -17007-5 0  9994
2 45204  53.0545 193.4952 0001477  77.7931 282.3224 15.06400367160311
1 45204U 20012AC  23005.54707086 -.00000042  00000-0  16070-4 0  9992
2 45204  53.0557 190.2194 0001336  78.9232 281.1907 15.06406788159471
1 45204U 20012AC  23006.21054207  .00000121  00000-0  27044-4 0  9997
2 45204  53.0543 187.2398 0001373  75.5685 284.5456 15.06399876159570
1 45204U 20012AC  23006.47593799 -.00000978  00000-0 -46749-4 0  9994
2 45204  53.0555 186.0504 0001429  79.5015 280.6134 15.06390220159611
1 45204U 20012AC  23006.54228943 -.00000646  00000-0 -24497-4 0  9996
2 45204  53.0536 185.7501 0001441  74.0159 286.0988 15.06382600159627
1 45204U 20012AC  23006.87402751 -.00001081  00000-0 -53717-4 0  9994
2 45204  53.0536 184.2608 0001433  73.8043 286.3104 15.06382337160621
1 45204U 20012AC  23007.20576216 -.00000856  00000-0 -38605-4 0  9998
2 45204  53.0545 182.7724 0001412  76.3795 283.7351 15.06385523160672
1 45204U 20012AC  23007.47114833 -.00000506  00000-0 -15105-4 0  9992
2 45204  53.0544 181.5808 0001357  76.5114 283.6026 15.06388804159767
1 45204U 20012AC  23007.86923326 -.00000928  00000-0 -43446-4 0  9997
2 45204  53.0546 179.7938 0001325  78.5385 281.5753 15.06387658160772
1 45204U 20012AC  23008.46637198  .00000561  00000-0  56578-4 0  9994
2 45204  53.0544 177.1132 0001122  82.4646 277.6471 15.06371435160866
1 45204U 20012AC  23008.46637198  .00000561  00000-0  56578-4 0  9994
2 45204  53.0544 177.1132 0001122  82.4646 277.6471 15.06371435159910
1 45204U 20012AC  23008.86444676  .00001835  00000-0  14208-3 0  9993
2 45204  53.0540 175.3261 0001683  75.9701 284.1475 15.06386891160922
1 45204U 20012AC  23008.86444676  .00001835  00000-0  14208-3 0  9993
2 45204  53.0540 175.3261 0001683  75.9701 284.1475 15.06386891159975
1 45204U 20012AC  23009.46156017  .00002367  00000-0  17774-3 0  9991
2 45204  53.0552 172.6471 0001154  76.9038 283.2079 15.06398844161017
1 45204U 20012AC  23009.46156017  .00002367  00000-0  17774-3 0  9991
2 45204  53.0552 172.6471 0001154  76.9038 283.2079 15.06398844160061
1 45204U 20012AC  23009.72694100  .00002955  00000-0  21713-3 0  9991
2 45204  53.0540 171.4554 0001589  87.6083 272.5087 15.06408533160100
1 45204U 20012AC  23009.85963305  .00003711  00000-0  26781-3 0  9992
2 45204  53.0540 170.8591 0001302  90.7639 269.3499 15.06407399161076
1 45204U 20012AC  23010.45676373  .00004374  00000-0  31236-3 0  9993
2 45204  53.0530 168.1777 0001382  90.3008 269.8139 15.06395385161162
1 45204U 20012AC  23010.45676373  .00004374  00000-0  31236-3 0  9993
2 45204  53.0530 168.1777 0001382  90.3008 269.8139 15.06395385160217
1 45204U 20012AC  23010.78848720  .00002077  00000-0  15824-3 0  9999
2 45204  53.0524 166.6882 0001566  93.9671 266.1497 15.06413095160260
1 45204U 20012AC  23010.85483314  .00001764  00000-0  13720-3 0  9996
2 45204  53.0541 166.3913 0001350  94.0270 266.0874 15.06415814161225
1 45204U 20012AC  23011.51830828 -.00001031  00000-0 -50298-4 0  9997
2 45204  53.0525 163.4115 0001593  91.4972 268.6199 15.06406954161322
1 45204U 20012AC  23011.71734393 -.00000573  00000-0 -19552-4 0  9997
2 45204  53.0525 162.5185 0001421  95.5282 264.5869 15.06410110161359
1 45204U 20012AC  23011.71734393 -.00000573  00000-0 -19552-4 0  9997
2 45204  53.0525 162.5185 0001421  95.5282 264.5869 15.06410110160404
1 45204U 20012AC  23012.11542934 -.00000643  00000-0 -24264-4 0  9994
2 45204  53.0548 160.7323 0001354  89.6372 270.4772 15.06401794160465
1 45204U 20012AC  23012.51351796 -.00001936  00000-0 -11115-3 0  9998
2 45204  53.0542 158.9451 0001132  86.7572 273.3546 15.06393056161478
1 45204U 20012AC  23012.51351796 -.00001936  00000-0 -11115-3 0  9998
2 45204  53.0542 158.9451 0001132  86.7572 273.3546 15.06393056160523
1 45204U 20012AC  23013.11062802 -.00001875  00000-0 -10699-3 0  9990
2 45204  53.0530 156.2657 0001210  92.4250 267.6878 15.06410384160611
1 45204U 20012AC  23013.50870765  .00001959  00000-0  15033-3 0  9996
2 45204  53.0533 154.4784 0001304  84.4622 275.6515 15.06404039161622
1 45204U 20012AC  23013.64139721  .00002711  00000-0  20079-3 0  9994
2 45204  53.0537 153.8826 0001099  86.1929 273.9186 15.06407290161645
1 45204U 20012AC  23014.37121968  .00002687  00000-0  19921-3 0  9995
2 45204  53.0529 150.6064 0001539  76.1925 283.9235 15.06398798160804
1 45204U 20012AC  23015.56546561 -.00000593  00000-0 -20865-4 0  9993
2 45204  53.0506 145.2451 0002095  78.3166 281.8058 15.06401239160982
1 45204U 20012AC  23015.63181095 -.00000531  00000-0 -16750-4 0  9998
2 45204  53.0512 144.9469 0001650  80.7187 279.3989 15.06401222161944
1 45204U 20012AC  23015.76449406  .00001023  00000-0  87500-4 0  9991
2 45204  53.0567 144.3498 0001008  73.9877 286.1223 15.06410893161960
1 45204U 20012AC  23015.76449406  .00001023  00000-0  87500-4 0  9991
2 45204  53.0567 144.3498 0001008  73.9877 286.1223 15.06410893161016
1 45204U 20012AC  23016.49431910  .00000838  00000-0  75111-4 0  9991
2 45204  53.0535 141.0725 0001160  77.1516 282.9602 15.06397283161127
1 45204U 20012AC  23016.62701004  .00001508  00000-0  12008-3 0  9990
2 45204  53.0528 140.4793 0001260  77.1862 282.9267 15.06402135162099
1 45204U 20012AC  23016.75970106  .00002136  00000-0  16221-3 0  9994
2 45204  53.0536 139.8826 0001229  76.9528 283.1598 15.06407189162115
1 45204U 20012AC  23016.75970106  .00002136  00000-0  16221-3 0  9994
2 45204  53.0536 139.8826 0001229  76.9528 283.1598 15.06407189161169
1 45204U 20012AC  23017.02511157 -.00003673  00000-0 -22799-3 0  9998
2 45204  53.0534 138.6895 0002008  80.7668 279.3548 15.06371000161203
1 45204U 20012AC  23017.35685435 -.00005953  00000-0 -38149-3 0  9994
2 45204  53.0529 137.2031 0001317  95.4596 264.6544 15.06359092161254
1 45204U 20012AC  23017.62223653 -.00000066  00000-0  14458-4 0  9991
2 45204  53.0537 136.0106 0000548  23.1535 336.9478 15.06378142162245
1 45204U 20012AC  23017.62223653 -.00000066  00000-0  14458-4 0  9991
2 45204  53.0537 136.0106 0000548  23.1535 336.9478 15.06378142161299
1 45204U 20012AC  23018.28570044  .00004719  00000-0  33546-3 0  9999
2 45204  53.0541 133.0322 0000769  55.0751 305.0310 15.06398943161394
1 45204U 20012AC  23018.55107954  .00010517  00000-0  72347-3 0  9990
2 45204  53.0537 131.8409 0000934  85.2934 274.8161 15.06419398162388
1 45204U 20012AC  23018.55107954  .00010517  00000-0  72347-3 0  9990
2 45204  53.0537 131.8409 0000934  85.2934 274.8161 15.06419398161433
1 45204U 20012AC  23018.68377254  .00012454  00000-0  85288-3 0  9996
2 45204  53.0538 131.2450 0000786  81.3625 278.7453 15.06425200162407
1 45204U 20012AC  23019.08186380  .00002285  00000-0  17224-3 0  9995
2 45204  53.0521 129.4594 0001333  96.8847 263.2294 15.06395385161516
1 45204U 20012AC  23019.41360626 -.00002438  00000-0 -14492-3 0  9995
2 45204  53.0530 127.9706 0001226  99.4796 260.6332 15.06378559162516
1 45204U 20012AC  23019.41360626 -.00002438  00000-0 -14492-3 0  9995
2 45204  53.0530 127.9706 0001226  99.4796 260.6332 15.06378559161560
1 45204U 20012AC  23020.07706406  .00002658  00000-0  19721-3 0  9991
2 45204  53.0536 124.9913 0001048 102.9340 257.1766 15.06406671161660
1 45204U 20012AC  23020.47514295  .00018538  00000-0  12594-2 0  9992
2 45204  53.0535 123.2042 0001052 109.8743 250.2359 15.06422585162678
1 45204U 20012AC  23020.67417866  .00030917  00000-0  20829-2 0  9995
2 45204  53.0536 122.3112 0001131  98.0662 262.0455 15.06444010161757
1 45204U 20012AC  23021.13860486  .00013974  00000-0  95459-3 0  9993
2 45204  53.0532 120.2255 0001530 122.9817 237.1319 15.06420977161826
1 45204U 20012AC  23021.47033881  .00023513  00000-0  15916-2 0  9990
2 45204  53.0541 118.7373 0001257 117.9225 242.1891 15.06413237161879
1 45204U 20012AC  23022.53188724  .00025934  00000-0  17527-2 0  9994
2 45204  53.0542 113.9717 0001005  86.9322 273.1782 15.06417841162030
1 45204U 20012AC  23023.19536065  .00016344  00000-0  11135-2 0  9996
2 45204  53.0540 110.9930 0001296  80.9441 279.1694 15.06402470162131
